[{"OBJECT_NAME":"STARLINK-34685","OBJECT_ID":"2025-150Z","EPOCH":"2026-03-09T13:41:24.326880","MEAN_MOTION":14.98346858,"ECCENTRICITY":0.0003693,"INCLINATION":70.0014,"RA_OF_ASC_NODE":134.9641,"ARG_OF_PERICENTER":271.3879,"MEAN_ANOMALY":88.6857,"EPHEMERIS_TYPE":0,"CLASSIFICATION_TYPE":"U","NORAD_CAT_ID":64813,"ELEMENT_SET_NO":999,"REV_AT_EPOCH":3649,"BSTAR":0.00026014,"MEAN_MOTION_DOT":3.014e-5,"MEAN_MOTION_DDOT":0},{"OBJECT_NAME":"COSMOS 2251 DEB","OBJECT_ID":"1993-036BUC","EPOCH":"2026-03-09T01:22:56.754912","MEAN_MOTION":14.94925122,"ECCENTRICITY":0.00400506,"INCLINATION":73.998,"RA_OF_ASC_NODE":322.714,"ARG_OF_PERICENTER":103.344,"MEAN_ANOMALY":257.2214,"EPHEMERIS_TYPE":0,"CLASSIFICATION_TYPE":"U","NORAD_CAT_ID":39546,"ELEMENT_SET_NO":999,"REV_AT_EPOCH":65725,"BSTAR":0.0016507429,"MEAN_MOTION_DOT":0.00018318,"MEAN_MOTION_DDOT":0}]
